[{"OBJECT_NAME":"ONEWEB-0585","OBJECT_ID":"2022-166L","EPOCH":"2026-03-09T13:41:49.704288","MEAN_MOTION":13.21824119,"ECCENTRICITY":0.0001766,"INCLINATION":87.9164,"RA_OF_ASC_NODE":263.8347,"ARG_OF_PERICENTER":91.5581,"MEAN_ANOMALY":268.5755,"EPHEMERIS_TYPE":0,"CLASSIFICATION_TYPE":"U","NORAD_CAT_ID":54652,"ELEMENT_SET_NO":999,"REV_AT_EPOCH":15836,"BSTAR":0.00011761,"MEAN_MOTION_DOT":6.2e-7,"MEAN_MOTION_DDOT":0},{"OBJECT_NAME":"COSMOS 1275 DEB","OBJECT_ID":"1981-053QG","EPOCH":"2026-03-03T20:59:14.856864","MEAN_MOTION":13.58081422,"ECCENTRICITY":0.0188659,"INCLINATION":82.9274,"RA_OF_ASC_NODE":121.9034,"ARG_OF_PERICENTER":290.309,"MEAN_ANOMALY":67.787,"EPHEMERIS_TYPE":0,"CLASSIFICATION_TYPE":"U","NORAD_CAT_ID":42120,"ELEMENT_SET_NO":999,"REV_AT_EPOCH":60707,"BSTAR":0.001045,"MEAN_MOTION_DOT":8.61e-6,"MEAN_MOTION_DDOT":0}]
